{
  "norad_id": 62515,
  "name": "STARLINK-11508 [DTC]",
  "history": [
    {
      "epoch": "2026-03-28T21:52:58.536768Z",
      "apogee_km": 357.4856028534241,
      "perigee_km": 355.142148637683,
      "latitude_deg": -3.6874547391582284e-05,
      "longitude_deg": 160.1198216748222,
      "height_km": 356.7154177890334,
      "semi_major_axis_km": 6734.450875745553,
      "eccentricity": 0.00017399,
      "inclination_deg": 42.9998,
      "raan_deg": 314.6892,
      "arg_perigee_deg": 237.5239,
      "mean_anomaly_deg": 122.546,
      "mean_motion_rev_day": 15.70903394
    },
    {
      "epoch": "2026-03-28T23:24:31.883328Z",
      "apogee_km": 358.54906956617197,
      "perigee_km": 354.00064779681816,
      "latitude_deg": 2.64035215897607e-05,
      "longitude_deg": 136.7855774232051,
      "height_km": 356.3704615884885,
      "semi_major_axis_km": 6734.411858681495,
      "eccentricity": 0.0003377,
      "inclination_deg": 43.0016,
      "raan_deg": 314.3065,
      "arg_perigee_deg": 261.8687,
      "mean_anomaly_deg": 98.1798,
      "mean_motion_rev_day": 15.70917046
    },
    {
      "epoch": "2026-03-29T23:49:29.951328Z",
      "apogee_km": 356.9124457878979,
      "perigee_km": 355.9398401787894,
      "latitude_deg": 2.187961493374694e-05,
      "longitude_deg": 123.40768826829677,
      "height_km": 356.52642245139265,
      "semi_major_axis_km": 6734.563142983344,
      "eccentricity": 7.221e-05,
      "inclination_deg": 42.9985,
      "raan_deg": 308.1733,
      "arg_perigee_deg": 227.4541,
      "mean_anomaly_deg": 132.6266,
      "mean_motion_rev_day": 15.70864113
    },
    {
      "epoch": "2026-03-30T22:42:53.862336Z",
      "apogee_km": 358.0040457377436,
      "perigee_km": 354.7624517612103,
      "latitude_deg": -5.179133392463402e-05,
      "longitude_deg": 133.3696237258286,
      "height_km": 356.0217994964476,
      "semi_major_axis_km": 6734.520248749477,
      "eccentricity": 0.00024067,
      "inclination_deg": 43.0006,
      "raan_deg": 302.425,
      "arg_perigee_deg": 274.7689,
      "mean_anomaly_deg": 85.2903,
      "mean_motion_rev_day": 15.70879121
    }
  ]
}